{
    "links": {
        "self": "http://www.neowsapp.com/rest/v1/neo/3747310?api_key=iIulBulltgU6a56xZRHN4H3l9WmuAYTsLGpBGhQ2"
    },
    "id": "3747310",
    "neo_reference_id": "3747310",
    "name": "(2016 EF157)",
    "designation": "2016 EF157",
    "nasa_jpl_url": "http://ssd.jpl.nasa.gov/sbdb.cgi?sstr=3747310",
    "absolute_magnitude_h": 25.0,
    "estimated_diameter": {
        "kilometers": {
            "estimated_diameter_min": 0.02658,
            "estimated_diameter_max": 0.0594346868
        },
        "meters": {
            "estimated_diameter_min": 26.58,
            "estimated_diameter_max": 59.4346868419
        },
        "miles": {
            "estimated_diameter_min": 0.0165160412,
            "estimated_diameter_max": 0.0369309908
        },
        "feet": {
            "estimated_diameter_min": 87.2047272,
            "estimated_diameter_max": 194.9956979785
        }
    },
    "is_potentially_hazardous_asteroid": false,
    "close_approach_data": [
        {
            "close_approach_date": "2016-03-23",
            "close_approach_date_full": "2016-Mar-23 02:09",
            "epoch_date_close_approach": 1458698940000,
            "relative_velocity": {
                "kilometers_per_second": "12.6957581471",
                "kilometers_per_hour": "45704.7293294498",
                "miles_per_hour": "28399.1413991795"
            },
            "miss_distance": {
                "astronomical": "0.0423491484",
                "lunar": "16.4738187276",
                "kilometers": "6335342.396953908",
                "miles": "3936599.2229356104"
            },
            "orbiting_body": "Earth"
        }
    ],
    "orbital_data": {
        "orbit_id": "4",
        "orbit_determination_date": "2017-04-06 08:27:28",
        "first_observation_date": "2016-03-12",
        "last_observation_date": "2016-03-17",
        "data_arc_in_days": 5,
        "observations_used": 21,
        "orbit_uncertainty": "8",
        "minimum_orbit_intersection": ".0304038",
        "jupiter_tisserand_invariant": "3.859",
        "epoch_osculation": "2457460.5",
        "eccentricity": ".5190523153224987",
        "semi_major_axis": "1.826733473586663",
        "inclination": "3.532482713044053",
        "ascending_node_longitude": "336.6393736590637",
        "orbital_period": "901.8020274157565",
        "perihelion_distance": ".878563234644395",
        "perihelion_argument": "259.4624155802002",
        "aphelion_distance": "2.774903712528931",
        "perihelion_time": "2457509.266937820215",
        "mean_anomaly": "340.5322043180731",
        "mean_motion": ".3992006993282459",
        "equinox": "J2000",
        "orbit_class": {
            "orbit_class_type": "APO",
            "orbit_class_description": "Near-Earth asteroid orbits which cross the Earth’s orbit similar to that of 1862 Apollo",
            "orbit_class_range": "a (semi-major axis) > 1.0 AU; q (perihelion) < 1.017 AU"
        }
    },
    "is_sentry_object": false
}